CCSDS_OMM_VERS = 2.0
CREATION_DATE  = 
ORIGINATOR     = 

OBJECT_NAME    = STARLINK-36749
OBJECT_ID      = 2026-026P
CENTER_NAME    = EARTH
REF_FRAME      = TEME
TIME_SYSTEM    = UTC
MEAN_ELEMENT_THEORY = SGP/SGP4

EPOCH          = 2026-02-25T04:00:01.999584
MEAN_MOTION    = 15.80832410
ECCENTRICITY   = .0000932
INCLINATION    = 97.2733
RA_OF_ASC_NODE = 110.1989
ARG_OF_PERICENTER = 91.0698
MEAN_ANOMALY   = 67.8796

EPHEMERIS_TYPE = 0
CLASSIFICATION_TYPE = U
NORAD_CAT_ID   = 67734
ELEMENT_SET_NO = 999
REV_AT_EPOCH   = 329
BSTAR          = -.13013E-3
MEAN_MOTION_DOT = -.25014E-3
MEAN_MOTION_DDOT = 0

CCSDS_OMM_VERS = 2.0
CREATION_DATE  = 
ORIGINATOR     = 

OBJECT_NAME    = STARLINK-36691
OBJECT_ID      = 2026-026Q
CENTER_NAME    = EARTH
REF_FRAME      = TEME
TIME_SYSTEM    = UTC
MEAN_ELEMENT_THEORY = SGP/SGP4

EPOCH          = 2026-02-25T04:00:01.999584
MEAN_MOTION    = 15.80825594
ECCENTRICITY   = .0001754
INCLINATION    = 97.2715
RA_OF_ASC_NODE = 110.2069
ARG_OF_PERICENTER = 83.5306
MEAN_ANOMALY   = 94.8518

EPHEMERIS_TYPE = 0
CLASSIFICATION_TYPE = U
NORAD_CAT_ID   = 67735
ELEMENT_SET_NO = 999
REV_AT_EPOCH   = 343
BSTAR          = .21359E-3
MEAN_MOTION_DOT = .40983E-3
MEAN_MOTION_DDOT = 0

CCSDS_OMM_VERS = 2.0
CREATION_DATE  = 
ORIGINATOR     = 

OBJECT_NAME    = STARLINK-36317
OBJECT_ID      = 2026-026R
CENTER_NAME    = EARTH
REF_FRAME      = TEME
TIME_SYSTEM    = UTC
MEAN_ELEMENT_THEORY = SGP/SGP4

EPOCH          = 2026-02-25T04:00:01.999584
MEAN_MOTION    = 15.80848678
ECCENTRICITY   = .0001331
INCLINATION    = 97.2715
RA_OF_ASC_NODE = 110.2022
ARG_OF_PERICENTER = 81.9879
MEAN_ANOMALY   = 86.9382

EPHEMERIS_TYPE = 0
CLASSIFICATION_TYPE = U
NORAD_CAT_ID   = 67736
ELEMENT_SET_NO = 999
REV_AT_EPOCH   = 329
BSTAR          = -.28541E-3
MEAN_MOTION_DOT = -.54552E-3
MEAN_MOTION_DDOT = 0

CCSDS_OMM_VERS = 2.0
CREATION_DATE  = 
ORIGINATOR     = 

OBJECT_NAME    = STARLINK-36330
OBJECT_ID      = 2026-026S
CENTER_NAME    = EARTH
REF_FRAME      = TEME
TIME_SYSTEM    = UTC
MEAN_ELEMENT_THEORY = SGP/SGP4

EPOCH          = 2026-02-25T04:00:01.999584
MEAN_MOTION    = 15.80853847
ECCENTRICITY   = .0001681
INCLINATION    = 97.2710
RA_OF_ASC_NODE = 110.2092
ARG_OF_PERICENTER = 83.0257
MEAN_ANOMALY   = 101.6264

EPHEMERIS_TYPE = 0
CLASSIFICATION_TYPE = U
NORAD_CAT_ID   = 67737
ELEMENT_SET_NO = 999
REV_AT_EPOCH   = 329
BSTAR          = -.36026E-3
MEAN_MOTION_DOT = -.68729E-3
MEAN_MOTION_DDOT = 0

CCSDS_OMM_VERS = 2.0
CREATION_DATE  = 
ORIGINATOR     = 

OBJECT_NAME    = STARLINK-36327
OBJECT_ID      = 2026-026T
CENTER_NAME    = EARTH
REF_FRAME      = TEME
TIME_SYSTEM    = UTC
MEAN_ELEMENT_THEORY = SGP/SGP4

EPOCH          = 2026-02-25T04:00:01.999584
MEAN_MOTION    = 15.80838588
ECCENTRICITY   = .0001081
INCLINATION    = 97.2708
RA_OF_ASC_NODE = 110.2126
ARG_OF_PERICENTER = 104.8064
MEAN_ANOMALY   = 87.8414

EPHEMERIS_TYPE = 0
CLASSIFICATION_TYPE = U
NORAD_CAT_ID   = 67738
ELEMENT_SET_NO = 999
REV_AT_EPOCH   = 329
BSTAR          = -.31058E-3
MEAN_MOTION_DOT = -.59288E-3
MEAN_MOTION_DDOT = 0

CCSDS_OMM_VERS = 2.0
CREATION_DATE  = 
ORIGINATOR     = 

OBJECT_NAME    = STARLINK-36329
OBJECT_ID      = 2026-026U
CENTER_NAME    = EARTH
REF_FRAME      = TEME
TIME_SYSTEM    = UTC
MEAN_ELEMENT_THEORY = SGP/SGP4

EPOCH          = 2026-02-25T04:00:01.999584
MEAN_MOTION    = 15.82243826
ECCENTRICITY   = .0001859
INCLINATION    = 97.2678
RA_OF_ASC_NODE = 110.2316
ARG_OF_PERICENTER = 84.7168
MEAN_ANOMALY   = 155.1168

EPHEMERIS_TYPE = 0
CLASSIFICATION_TYPE = U
NORAD_CAT_ID   = 67739
ELEMENT_SET_NO = 999
REV_AT_EPOCH   = 329
BSTAR          = -.95632E-2
MEAN_MOTION_DOT = -.169869E-1
MEAN_MOTION_DDOT = 0

CCSDS_OMM_VERS = 2.0
CREATION_DATE  = 
ORIGINATOR     = 

OBJECT_NAME    = STARLINK-36737
OBJECT_ID      = 2026-026V
CENTER_NAME    = EARTH
REF_FRAME      = TEME
TIME_SYSTEM    = UTC
MEAN_ELEMENT_THEORY = SGP/SGP4

EPOCH          = 2026-02-25T04:00:01.999584
MEAN_MOTION    = 15.80807628
ECCENTRICITY   = .000093
INCLINATION    = 97.2699
RA_OF_ASC_NODE = 110.2153
ARG_OF_PERICENTER = 75.6360
MEAN_ANOMALY   = 125.7640

EPHEMERIS_TYPE = 0
CLASSIFICATION_TYPE = U
NORAD_CAT_ID   = 67740
ELEMENT_SET_NO = 999
REV_AT_EPOCH   = 329
BSTAR          = .85352E-4
MEAN_MOTION_DOT = .16231E-3
MEAN_MOTION_DDOT = 0

CCSDS_OMM_VERS = 2.0
CREATION_DATE  = 
ORIGINATOR     = 

OBJECT_NAME    = STARLINK-36740
OBJECT_ID      = 2026-026W
CENTER_NAME    = EARTH
REF_FRAME      = TEME
TIME_SYSTEM    = UTC
MEAN_ELEMENT_THEORY = SGP/SGP4

EPOCH          = 2026-02-25T04:00:01.999584
MEAN_MOTION    = 15.81694624
ECCENTRICITY   = .0001686
INCLINATION    = 97.2688
RA_OF_ASC_NODE = 110.2276
ARG_OF_PERICENTER = 75.7459
MEAN_ANOMALY   = 154.1118

EPHEMERIS_TYPE = 0
CLASSIFICATION_TYPE = U
NORAD_CAT_ID   = 67741
ELEMENT_SET_NO = 999
REV_AT_EPOCH   = 329
BSTAR          = -.64355E-2
MEAN_MOTION_DOT = -.1148863E-1
MEAN_MOTION_DDOT = 0

CCSDS_OMM_VERS = 2.0
CREATION_DATE  = 
ORIGINATOR     = 

OBJECT_NAME    = STARLINK-36693
OBJECT_ID      = 2026-026X
CENTER_NAME    = EARTH
REF_FRAME      = TEME
TIME_SYSTEM    = UTC
MEAN_ELEMENT_THEORY = SGP/SGP4

EPOCH          = 2026-02-25T04:00:01.999584
MEAN_MOTION    = 15.80855387
ECCENTRICITY   = .000152
INCLINATION    = 97.2698
RA_OF_ASC_NODE = 110.2190
ARG_OF_PERICENTER = 78.1098
MEAN_ANOMALY   = 129.9086

EPHEMERIS_TYPE = 0
CLASSIFICATION_TYPE = U
NORAD_CAT_ID   = 67742
ELEMENT_SET_NO = 999
REV_AT_EPOCH   = 343
BSTAR          = -.5031E-3
MEAN_MOTION_DOT = -.95636E-3
MEAN_MOTION_DDOT = 0

CCSDS_OMM_VERS = 2.0
CREATION_DATE  = 
ORIGINATOR     = 

OBJECT_NAME    = STARLINK-36717
OBJECT_ID      = 2026-026Y
CENTER_NAME    = EARTH
REF_FRAME      = TEME
TIME_SYSTEM    = UTC
MEAN_ELEMENT_THEORY = SGP/SGP4

EPOCH          = 2026-02-25T04:00:01.999584
MEAN_MOTION    = 15.81403681
ECCENTRICITY   = .0001363
INCLINATION    = 97.2681
RA_OF_ASC_NODE = 110.2242
ARG_OF_PERICENTER = 66.0749
MEAN_ANOMALY   = 157.3513

EPHEMERIS_TYPE = 0
CLASSIFICATION_TYPE = U
NORAD_CAT_ID   = 67743
ELEMENT_SET_NO = 999
REV_AT_EPOCH   = 343
BSTAR          = -.46185E-2
MEAN_MOTION_DOT = -.827591E-2
MEAN_MOTION_DDOT = 0

CCSDS_OMM_VERS = 2.0
CREATION_DATE  = 
ORIGINATOR     = 

OBJECT_NAME    = STARLINK-36692
OBJECT_ID      = 2026-026Z
CENTER_NAME    = EARTH
REF_FRAME      = TEME
TIME_SYSTEM    = UTC
MEAN_ELEMENT_THEORY = SGP/SGP4

EPOCH          = 2026-02-25T04:00:01.999584
MEAN_MOTION    = 15.81112817
ECCENTRICITY   = .0001626
INCLINATION    = 97.2692
RA_OF_ASC_NODE = 110.2216
ARG_OF_PERICENTER = 76.0550
MEAN_ANOMALY   = 140.2200

EPHEMERIS_TYPE = 0
CLASSIFICATION_TYPE = U
NORAD_CAT_ID   = 67744
ELEMENT_SET_NO = 999
REV_AT_EPOCH   = 329
BSTAR          = -.24637E-2
MEAN_MOTION_DOT = -.45453E-2
MEAN_MOTION_DDOT = 0

CCSDS_OMM_VERS = 2.0
CREATION_DATE  = 
ORIGINATOR     = 

OBJECT_NAME    = 2026-027A
OBJECT_ID      = 2026-027A
CENTER_NAME    = EARTH
REF_FRAME      = TEME
TIME_SYSTEM    = UTC
MEAN_ELEMENT_THEORY = SGP/SGP4

EPOCH          = 2026-02-25T04:12:37.234080
MEAN_MOTION    = 15.17431952
ECCENTRICITY   = .0009444
INCLINATION    = 97.4880
RA_OF_ASC_NODE = 185.3242
ARG_OF_PERICENTER = 240.2181
MEAN_ANOMALY   = 119.8113

EPHEMERIS_TYPE = 0
CLASSIFICATION_TYPE = U
NORAD_CAT_ID   = 67746
ELEMENT_SET_NO = 999
REV_AT_EPOCH   = 196
BSTAR          = .41543E-3
MEAN_MOTION_DOT = .8255E-4
MEAN_MOTION_DDOT = 0

