STARLINK-36749          
1 67734U 26026P   26056.16668981 -.00025014  00000+0 -13013-3 0  9991
2 67734  97.2733 110.1989 0000932  91.0698  67.8796 15.80832410  3295
STARLINK-36691          
1 67735U 26026Q   26056.16668981  .00040983  00000+0  21359-3 0  9994
2 67735  97.2715 110.2069 0001754  83.5306  94.8518 15.80825594  3434
STARLINK-36317          
1 67736U 26026R   26056.16668981 -.00054552  00000+0 -28541-3 0  9994
2 67736  97.2715 110.2022 0001331  81.9879  86.9382 15.80848678  3295
STARLINK-36330          
1 67737U 26026S   26056.16668981 -.00068729  00000+0 -36026-3 0  9993
2 67737  97.2710 110.2092 0001681  83.0257 101.6264 15.80853847  3297
STARLINK-36327          
1 67738U 26026T   26056.16668981 -.00059288  00000+0 -31058-3 0  9994
2 67738  97.2708 110.2126 0001081 104.8064  87.8414 15.80838588  3292
STARLINK-36329          
1 67739U 26026U   26056.16668981 -.01698690  00000+0 -95632-2 0  9999
2 67739  97.2678 110.2316 0001859  84.7168 155.1168 15.82243826  3296
STARLINK-36737          
1 67740U 26026V   26056.16668981  .00016231  00000+0  85352-4 0  9993
2 67740  97.2699 110.2153 0000930  75.6360 125.7640 15.80807628  3294
STARLINK-36740          
1 67741U 26026W   26056.16668981 -.01148863  00000+0 -64355-2 0  9992
2 67741  97.2688 110.2276 0001686  75.7459 154.1118 15.81694624  3295
STARLINK-36693          
1 67742U 26026X   26056.16668981 -.00095636  00000+0 -50310-3 0  9998
2 67742  97.2698 110.2190 0001520  78.1098 129.9086 15.80855387  3439
STARLINK-36717          
1 67743U 26026Y   26056.16668981 -.00827591  00000+0 -46185-2 0  9996
2 67743  97.2681 110.2242 0001363  66.0749 157.3513 15.81403681  3431
STARLINK-36692          
1 67744U 26026Z   26056.16668981 -.00454530  00000+0 -24637-2 0  9994
2 67744  97.2692 110.2216 0001626  76.0550 140.2200 15.81112817  3294
2026-027A               
1 67746U 26027A   26056.17543095  .00008255  00000+0  41543-3 0  9999
2 67746  97.4880 185.3242 0009444 240.2181 119.8113 15.17431952  1960
